{
    "links": {
        "self": "http://www.neowsapp.com/rest/v1/neo/3763927?api_key=iIulBulltgU6a56xZRHN4H3l9WmuAYTsLGpBGhQ2"
    },
    "id": "3763927",
    "neo_reference_id": "3763927",
    "name": "(2016 WD)",
    "designation": "2016 WD",
    "nasa_jpl_url": "http://ssd.jpl.nasa.gov/sbdb.cgi?sstr=3763927",
    "absolute_magnitude_h": 24.9,
    "estimated_diameter": {
        "kilometers": {
            "estimated_diameter_min": 0.0278326768,
            "estimated_diameter_max": 0.0622357573
        },
        "meters": {
            "estimated_diameter_min": 27.8326768072,
            "estimated_diameter_max": 62.2357573367
        },
        "miles": {
            "estimated_diameter_min": 0.0172944182,
            "estimated_diameter_max": 0.0386714948
        },
        "feet": {
            "estimated_diameter_min": 91.3145593761,
            "estimated_diameter_max": 204.1855621004
        }
    },
    "is_potentially_hazardous_asteroid": false,
    "close_approach_data": [
        {
            "close_approach_date": "2016-11-16",
            "close_approach_date_full": "2016-Nov-16 23:01",
            "epoch_date_close_approach": 1479337260000,
            "relative_velocity": {
                "kilometers_per_second": "13.9363864602",
                "kilometers_per_hour": "50170.9912566365",
                "miles_per_hour": "31174.3028727695"
            },
            "miss_distance": {
                "astronomical": "0.0475996867",
                "lunar": "18.5162781263",
                "kilometers": "7120811.742987329",
                "miles": "4424667.2425459802"
            },
            "orbiting_body": "Earth"
        },
        {
            "close_approach_date": "2018-11-23",
            "close_approach_date_full": "2018-Nov-23 23:42",
            "epoch_date_close_approach": 1543016520000,
            "relative_velocity": {
                "kilometers_per_second": "5.3871442188",
                "kilometers_per_hour": "19393.719187512",
                "miles_per_hour": "12050.5029029293"
            },
            "miss_distance": {
                "astronomical": "1.648989035",
                "lunar": "641.456734615",
                "kilometers": "246685247.28935545",
                "miles": "153283104.83358721"
            },
            "orbiting_body": "Juptr"
        }
    ],
    "orbital_data": {
        "orbit_id": "4",
        "orbit_determination_date": "2017-04-06 08:22:10",
        "first_observation_date": "2016-11-18",
        "last_observation_date": "2016-11-23",
        "data_arc_in_days": 5,
        "observations_used": 38,
        "orbit_uncertainty": "8",
        "minimum_orbit_intersection": ".0466504",
        "jupiter_tisserand_invariant": "3.125",
        "epoch_osculation": "2457711.5",
        "eccentricity": ".5872267979114441",
        "semi_major_axis": "2.506717227114204",
        "inclination": "20.92505479922929",
        "ascending_node_longitude": "54.65714060933861",
        "orbital_period": "1449.627587562706",
        "perihelion_distance": "1.034705696566476",
        "perihelion_argument": "356.179980923376",
        "aphelion_distance": "3.978728757661933",
        "perihelion_time": "2457706.543540586632",
        "mean_anomaly": "1.230885369539986",
        "mean_motion": ".2483396446705852",
        "equinox": "J2000",
        "orbit_class": {
            "orbit_class_type": "AMO",
            "orbit_class_description": "Near-Earth asteroid orbits similar to that of 1221 Amor",
            "orbit_class_range": "1.017 AU < q (perihelion) < 1.3 AU"
        }
    },
    "is_sentry_object": false
}